[{"OBJECT_NAME":"QIANFAN-39","OBJECT_ID":"2024-232D","EPOCH":"2026-03-09T21:25:16.059072","MEAN_MOTION":14.25440879,"ECCENTRICITY":0.00171102,"INCLINATION":89.0064,"RA_OF_ASC_NODE":27.3413,"ARG_OF_PERICENTER":145.5992,"MEAN_ANOMALY":214.6313,"EPHEMERIS_TYPE":0,"CLASSIFICATION_TYPE":"U","NORAD_CAT_ID":62240,"ELEMENT_SET_NO":999,"REV_AT_EPOCH":11380,"BSTAR":0.00022622412,"MEAN_MOTION_DOT":5.49e-6,"MEAN_MOTION_DDOT":0},{"OBJECT_NAME":"DMSP 5D-2 F13 DEB","OBJECT_ID":"1995-015AC","EPOCH":"2026-03-09T13:17:51.655776","MEAN_MOTION":14.29127038,"ECCENTRICITY":0.0004464,"INCLINATION":98.7278,"RA_OF_ASC_NODE":95.9381,"ARG_OF_PERICENTER":254.792,"MEAN_ANOMALY":105.2768,"EPHEMERIS_TYPE":0,"CLASSIFICATION_TYPE":"U","NORAD_CAT_ID":40415,"ELEMENT_SET_NO":999,"REV_AT_EPOCH":57181,"BSTAR":0.0010875,"MEAN_MOTION_DOT":2.714e-5,"MEAN_MOTION_DDOT":0}]
